{
    "links": {
        "self": "http://www.neowsapp.com/rest/v1/neo/3781411?api_key=iIulBulltgU6a56xZRHN4H3l9WmuAYTsLGpBGhQ2"
    },
    "id": "3781411",
    "neo_reference_id": "3781411",
    "name": "(2017 RW2)",
    "designation": "2017 RW2",
    "nasa_jpl_url": "http://ssd.jpl.nasa.gov/sbdb.cgi?sstr=3781411",
    "absolute_magnitude_h": 25.3,
    "estimated_diameter": {
        "kilometers": {
            "estimated_diameter_min": 0.0231502122,
            "estimated_diameter_max": 0.0517654482
        },
        "meters": {
            "estimated_diameter_min": 23.150212221,
            "estimated_diameter_max": 51.7654482198
        },
        "miles": {
            "estimated_diameter_min": 0.0143848705,
            "estimated_diameter_max": 0.0321655483
        },
        "feet": {
            "estimated_diameter_min": 75.9521422633,
            "estimated_diameter_max": 169.8341531374
        }
    },
    "is_potentially_hazardous_asteroid": false,
    "close_approach_data": [
        {
            "close_approach_date": "2017-09-25",
            "close_approach_date_full": "2017-Sep-25 10:35",
            "epoch_date_close_approach": 1506335700000,
            "relative_velocity": {
                "kilometers_per_second": "12.8788513025",
                "kilometers_per_hour": "46363.8646890835",
                "miles_per_hour": "28808.7024786141"
            },
            "miss_distance": {
                "astronomical": "0.0387783745",
                "lunar": "15.0847876805",
                "kilometers": "5801162.227262315",
                "miles": "3604675.057017347"
            },
            "orbiting_body": "Earth"
        }
    ],
    "orbital_data": {
        "orbit_id": "7",
        "orbit_determination_date": "2017-12-07 06:21:57",
        "first_observation_date": "2017-09-15",
        "last_observation_date": "2017-09-24",
        "data_arc_in_days": 9,
        "observations_used": 38,
        "orbit_uncertainty": "8",
        "minimum_orbit_intersection": ".00854922",
        "jupiter_tisserand_invariant": "3.156",
        "epoch_osculation": "2458014.5",
        "eccentricity": ".6366354153100326",
        "semi_major_axis": "2.490540533076513",
        "inclination": ".990535438171022",
        "ascending_node_longitude": "338.2133223062919",
        "orbital_period": "1435.617845306795",
        "perihelion_distance": ".9049742264548772",
        "perihelion_argument": "70.74522234871583",
        "aphelion_distance": "4.076106839698149",
        "perihelion_time": "2458055.076457895212",
        "mean_anomaly": "349.8249211027642",
        "mean_motion": ".2507631130226492",
        "equinox": "J2000",
        "orbit_class": {
            "orbit_class_type": "APO",
            "orbit_class_description": "Near-Earth asteroid orbits which cross the Earth’s orbit similar to that of 1862 Apollo",
            "orbit_class_range": "a (semi-major axis) > 1.0 AU; q (perihelion) < 1.017 AU"
        }
    },
    "is_sentry_object": false
}